KUIPER-00144            
1 67133U 25301A   26065.34033311  .00043706  00000+0  11441-2 0  9990
2 67133  51.8680  81.2790 0007676  21.5546 338.5763 15.38261269 13222
KUIPER-00164            
1 67134U 25301B   26065.83334490 -.01770450  00000+0 -10267+0 0  9995
2 67134  51.8798  80.5769 0003964  56.6853   2.6031 15.14957865  5807
KUIPER-00175            
1 67135U 25301C   26065.45453877  .00024290  00000+0  81271-3 0  9993
2 67135  51.8770  80.5755 0001993  36.1438 323.9681 15.30836302 13310
KUIPER-00179            
1 67136U 25301D   26065.83334490 -.01857091  00000+0 -11916+0 0  9996
2 67136  51.8837  80.0520 0002132  68.1452 314.8890 15.11557224  5894
KUIPER-00181            
1 67137U 25301E   26065.83334490  .00003603  00000+0  54397-3 0  9990
2 67137  51.9012  89.6596 0001905  89.8576  51.5643 14.76405175  5554
KUIPER-00183            
1 67138U 25301F   26065.83334490 -.00559220  00000+0 -20956-1 0  9996
2 67138  51.8665  79.7538 0015032  43.6672  57.5625 15.29012870  5747
KUIPER-00184            
1 67139U 25301G   26065.83334490 -.00543263  00000+0 -17197-1 0  9990
2 67139  51.8628  79.4189 0011791  43.8243 237.1712 15.34364613  5890
KUIPER-00186            
1 67140U 25301H   26065.47160831  .00006338  00000+0  85847-3 0  9992
2 67140  51.9013  92.3410 0000691 109.1062 250.9975 14.79988664 13084
KUIPER-00187            
1 67141U 25301J   26065.80649612  .00005008  00000+0  68537-3 0  9999
2 67141  51.9017  93.3711 0000831 109.8737 250.2315 14.79934857 13093
KUIPER-00188            
1 67142U 25301K   26065.42822953  .00038351  00000+0  10167-2 0  9991
2 67142  51.8690  81.1101 0010477  32.3440 327.8188 15.37904934 13239
KUIPER-00191            
1 67143U 25301L   26065.83334490 -.00006477  00000+0 -76572-3 0  9990
2 67143  51.8997  85.8249 0004976  66.6389 184.9920 14.82805978  5125
KUIPER-00196            
1 67144U 25301M   26065.44856710  .00039075  00000+0  10119-2 0  9994
2 67144  51.8703  80.5243 0003879  11.4540 348.6535 15.38663220 13242
KUIPER-00204            
1 67145U 25301N   26065.45063971  .00024442  00000+0  94798-3 0  9993
2 67145  51.8853  85.6462 0003245 341.1391  18.9471 15.25979822 13286
KUIPER-00210            
1 67146U 25301P   26065.83334490 -.00006291  00000+0 -72912-3 0  9991
2 67146  51.8988  85.8212 0008966  61.8455 353.3374 14.83546738  5809
KUIPER-00221            
1 67147U 25301Q   26065.36753738 -.00002439  00000+0 -29091-3 0  9990
2 67147  51.9051  95.2960 0000201  27.4758 332.6215 14.79956853 13031
KUIPER-00232            
1 67148U 25301R   26065.83334490 -.01694220  00000+0 -10422+0 0  9993
2 67148  51.8829  79.8635 0002948 147.3683 259.9257 15.12745045  5529
KUIPER-00241            
1 67149U 25301S   26065.57544579 -.00035781  00000+0 -46889-2 0  9995
2 67149  51.9029  89.3822 0000997  97.2530 262.8546 14.79938288 13464
