[{"OBJECT_NAME":"KUIPER-00144","OBJECT_ID":"2025-301A","EPOCH":"2026-03-06T08:10:04.780704","MEAN_MOTION":15.38261269,"ECCENTRICITY":0.00076764,"INCLINATION":51.868,"RA_OF_ASC_NODE":81.279,"ARG_OF_PERICENTER":21.5546,"MEAN_ANOMALY":338.5763,"EPHEMERIS_TYPE":0,"CLASSIFICATION_TYPE":"U","NORAD_CAT_ID":67133,"ELEMENT_SET_NO":999,"REV_AT_EPOCH":1322,"BSTAR":0.0011440598,"MEAN_MOTION_DOT":0.00043706,"MEAN_MOTION_DDOT":0},{"OBJECT_NAME":"KUIPER-00164","OBJECT_ID":"2025-301B","EPOCH":"2026-03-06T20:00:00.999360","MEAN_MOTION":15.14957865,"ECCENTRICITY":0.0003964,"INCLINATION":51.8798,"RA_OF_ASC_NODE":80.5769,"ARG_OF_PERICENTER":56.6853,"MEAN_ANOMALY":2.6031,"EPHEMERIS_TYPE":0,"CLASSIFICATION_TYPE":"U","NORAD_CAT_ID":67134,"ELEMENT_SET_NO":999,"REV_AT_EPOCH":580,"BSTAR":-0.10267,"MEAN_MOTION_DOT":-0.0177045,"MEAN_MOTION_DDOT":0},{"OBJECT_NAME":"KUIPER-00175","OBJECT_ID":"2025-301C","EPOCH":"2026-03-06T10:54:32.149728","MEAN_MOTION":15.30836302,"ECCENTRICITY":0.0001993,"INCLINATION":51.877,"RA_OF_ASC_NODE":80.5755,"ARG_OF_PERICENTER":36.1438,"MEAN_ANOMALY":323.9681,"EPHEMERIS_TYPE":0,"CLASSIFICATION_TYPE":"U","NORAD_CAT_ID":67135,"ELEMENT_SET_NO":999,"REV_AT_EPOCH":1331,"BSTAR":0.0008127066,"MEAN_MOTION_DOT":0.0002429,"MEAN_MOTION_DDOT":0},{"OBJECT_NAME":"KUIPER-00179","OBJECT_ID":"2025-301D","EPOCH":"2026-03-06T20:00:00.999360","MEAN_MOTION":15.11557224,"ECCENTRICITY":0.0002132,"INCLINATION":51.8837,"RA_OF_ASC_NODE":80.052,"ARG_OF_PERICENTER":68.1452,"MEAN_ANOMALY":314.889,"EPHEMERIS_TYPE":0,"CLASSIFICATION_TYPE":"U","NORAD_CAT_ID":67136,"ELEMENT_SET_NO":999,"REV_AT_EPOCH":589,"BSTAR":-0.11916,"MEAN_MOTION_DOT":-0.01857091,"MEAN_MOTION_DDOT":0},{"OBJECT_NAME":"KUIPER-00181","OBJECT_ID":"2025-301E","EPOCH":"2026-03-06T20:00:00.999360","MEAN_MOTION":14.76405175,"ECCENTRICITY":0.0001905,"INCLINATION":51.9012,"RA_OF_ASC_NODE":89.6596,"ARG_OF_PERICENTER":89.8576,"MEAN_ANOMALY":51.5643,"EPHEMERIS_TYPE":0,"CLASSIFICATION_TYPE":"U","NORAD_CAT_ID":67137,"ELEMENT_SET_NO":999,"REV_AT_EPOCH":555,"BSTAR":0.00054397,"MEAN_MOTION_DOT":3.603e-5,"MEAN_MOTION_DDOT":0},{"OBJECT_NAME":"KUIPER-00183","OBJECT_ID":"2025-301F","EPOCH":"2026-03-06T20:00:00.999360","MEAN_MOTION":15.2901287,"ECCENTRICITY":0.0015032,"INCLINATION":51.8665,"RA_OF_ASC_NODE":79.7538,"ARG_OF_PERICENTER":43.6672,"MEAN_ANOMALY":57.5625,"EPHEMERIS_TYPE":0,"CLASSIFICATION_TYPE":"U","NORAD_CAT_ID":67138,"ELEMENT_SET_NO":999,"REV_AT_EPOCH":574,"BSTAR":-0.020956,"MEAN_MOTION_DOT":-0.0055922,"MEAN_MOTION_DDOT":0},{"OBJECT_NAME":"KUIPER-00184","OBJECT_ID":"2025-301G","EPOCH":"2026-03-06T20:00:00.999360","MEAN_MOTION":15.34364613,"ECCENTRICITY":0.0011791,"INCLINATION":51.8628,"RA_OF_ASC_NODE":79.4189,"ARG_OF_PERICENTER":43.8243,"MEAN_ANOMALY":237.1712,"EPHEMERIS_TYPE":0,"CLASSIFICATION_TYPE":"U","NORAD_CAT_ID":67139,"ELEMENT_SET_NO":999,"REV_AT_EPOCH":589,"BSTAR":-0.017197,"MEAN_MOTION_DOT":-0.00543263,"MEAN_MOTION_DDOT":0},{"OBJECT_NAME":"KUIPER-00186","OBJECT_ID":"2025-301H","EPOCH":"2026-03-06T11:19:06.957984","MEAN_MOTION":14.79988664,"ECCENTRICITY":6.911e-5,"INCLINATION":51.9013,"RA_OF_ASC_NODE":92.341,"ARG_OF_PERICENTER":109.1062,"MEAN_ANOMALY":250.9975,"EPHEMERIS_TYPE":0,"CLASSIFICATION_TYPE":"U","NORAD_CAT_ID":67140,"ELEMENT_SET_NO":999,"REV_AT_EPOCH":1308,"BSTAR":0.00085846705,"MEAN_MOTION_DOT":6.338e-5,"MEAN_MOTION_DDOT":0},{"OBJECT_NAME":"KUIPER-00187","OBJECT_ID":"2025-301J","EPOCH":"2026-03-06T19:21:21.264768","MEAN_MOTION":14.79934857,"ECCENTRICITY":8.31e-5,"INCLINATION":51.9017,"RA_OF_ASC_NODE":93.3711,"ARG_OF_PERICENTER":109.8737,"MEAN_ANOMALY":250.2315,"EPHEMERIS_TYPE":0,"CLASSIFICATION_TYPE":"U","NORAD_CAT_ID":67141,"ELEMENT_SET_NO":999,"REV_AT_EPOCH":1309,"BSTAR":0.00068537,"MEAN_MOTION_DOT":5.008e-5,"MEAN_MOTION_DDOT":0},{"OBJECT_NAME":"KUIPER-00188","OBJECT_ID":"2025-301K","EPOCH":"2026-03-06T10:16:39.031392","MEAN_MOTION":15.37904934,"ECCENTRICITY":0.00104776,"INCLINATION":51.869,"RA_OF_ASC_NODE":81.1101,"ARG_OF_PERICENTER":32.344,"MEAN_ANOMALY":327.8188,"EPHEMERIS_TYPE":0,"CLASSIFICATION_TYPE":"U","NORAD_CAT_ID":67142,"ELEMENT_SET_NO":999,"REV_AT_EPOCH":1323,"BSTAR":0.0010167426,"MEAN_MOTION_DOT":0.00038351,"MEAN_MOTION_DDOT":0},{"OBJECT_NAME":"KUIPER-00191","OBJECT_ID":"2025-301L","EPOCH":"2026-03-06T20:00:00.999360","MEAN_MOTION":14.82805978,"ECCENTRICITY":0.0004976,"INCLINATION":51.8997,"RA_OF_ASC_NODE":85.8249,"ARG_OF_PERICENTER":66.6389,"MEAN_ANOMALY":184.992,"EPHEMERIS_TYPE":0,"CLASSIFICATION_TYPE":"U","NORAD_CAT_ID":67143,"ELEMENT_SET_NO":999,"REV_AT_EPOCH":512,"BSTAR":-0.00076572,"MEAN_MOTION_DOT":-6.477e-5,"MEAN_MOTION_DDOT":0},{"OBJECT_NAME":"KUIPER-00196","OBJECT_ID":"2025-301M","EPOCH":"2026-03-06T10:45:56.197440","MEAN_MOTION":15.3866322,"ECCENTRICITY":0.00038797,"INCLINATION":51.8703,"RA_OF_ASC_NODE":80.5243,"ARG_OF_PERICENTER":11.454,"MEAN_ANOMALY":348.6535,"EPHEMERIS_TYPE":0,"CLASSIFICATION_TYPE":"U","NORAD_CAT_ID":67144,"ELEMENT_SET_NO":999,"REV_AT_EPOCH":1324,"BSTAR":0.0010119049,"MEAN_MOTION_DOT":0.00039075,"MEAN_MOTION_DDOT":0},{"OBJECT_NAME":"KUIPER-00204","OBJECT_ID":"2025-301N","EPOCH":"2026-03-06T10:48:55.270944","MEAN_MOTION":15.25979822,"ECCENTRICITY":0.00032453,"INCLINATION":51.8853,"RA_OF_ASC_NODE":85.6462,"ARG_OF_PERICENTER":341.1391,"MEAN_ANOMALY":18.9471,"EPHEMERIS_TYPE":0,"CLASSIFICATION_TYPE":"U","NORAD_CAT_ID":67145,"ELEMENT_SET_NO":999,"REV_AT_EPOCH":1328,"BSTAR":0.00094798472,"MEAN_MOTION_DOT":0.00024442,"MEAN_MOTION_DDOT":0},{"OBJECT_NAME":"KUIPER-00210","OBJECT_ID":"2025-301P","EPOCH":"2026-03-06T20:00:00.999360","MEAN_MOTION":14.83546738,"ECCENTRICITY":0.0008966,"INCLINATION":51.8988,"RA_OF_ASC_NODE":85.8212,"ARG_OF_PERICENTER":61.8455,"MEAN_ANOMALY":353.3374,"EPHEMERIS_TYPE":0,"CLASSIFICATION_TYPE":"U","NORAD_CAT_ID":67146,"ELEMENT_SET_NO":999,"REV_AT_EPOCH":580,"BSTAR":-0.00072912,"MEAN_MOTION_DOT":-6.291e-5,"MEAN_MOTION_DDOT":0},{"OBJECT_NAME":"KUIPER-00221","OBJECT_ID":"2025-301Q","EPOCH":"2026-03-06T08:49:15.229632","MEAN_MOTION":14.79956853,"ECCENTRICITY":2.01e-5,"INCLINATION":51.9051,"RA_OF_ASC_NODE":95.296,"ARG_OF_PERICENTER":27.4758,"MEAN_ANOMALY":332.6215,"EPHEMERIS_TYPE":0,"CLASSIFICATION_TYPE":"U","NORAD_CAT_ID":67147,"ELEMENT_SET_NO":999,"REV_AT_EPOCH":1303,"BSTAR":-0.00029090615,"MEAN_MOTION_DOT":-2.439e-5,"MEAN_MOTION_DDOT":0},{"OBJECT_NAME":"KUIPER-00232","OBJECT_ID":"2025-301R","EPOCH":"2026-03-06T20:00:00.999360","MEAN_MOTION":15.12745045,"ECCENTRICITY":0.0002948,"INCLINATION":51.8829,"RA_OF_ASC_NODE":79.8635,"ARG_OF_PERICENTER":147.3683,"MEAN_ANOMALY":259.9257,"EPHEMERIS_TYPE":0,"CLASSIFICATION_TYPE":"U","NORAD_CAT_ID":67148,"ELEMENT_SET_NO":999,"REV_AT_EPOCH":552,"BSTAR":-0.10422,"MEAN_MOTION_DOT":-0.0169422,"MEAN_MOTION_DDOT":0},{"OBJECT_NAME":"KUIPER-00241","OBJECT_ID":"2025-301S","EPOCH":"2026-03-06T13:48:38.516256","MEAN_MOTION":14.79938288,"ECCENTRICITY":9.979e-5,"INCLINATION":51.9029,"RA_OF_ASC_NODE":89.3822,"ARG_OF_PERICENTER":97.253,"MEAN_ANOMALY":262.8546,"EPHEMERIS_TYPE":0,"CLASSIFICATION_TYPE":"U","NORAD_CAT_ID":67149,"ELEMENT_SET_NO":999,"REV_AT_EPOCH":1346,"BSTAR":-0.0046889373,"MEAN_MOTION_DOT":-0.00035781,"MEAN_MOTION_DDOT":0}]
